[{"OBJECT_NAME":"ONEWEB-0588","OBJECT_ID":"2023-004P","EPOCH":"2025-08-24T12:09:19.996416","MEAN_MOTION":13.18688114,"ECCENTRICITY":0.0001712,"INCLINATION":87.9143,"RA_OF_ASC_NODE":34.4127,"ARG_OF_PERICENTER":109.9683,"MEAN_ANOMALY":250.1634,"EPHEMERIS_TYPE":0,"CLASSIFICATION_TYPE":"U","NORAD_CAT_ID":55153,"ELEMENT_SET_NO":999,"REV_AT_EPOCH":13059,"BSTAR":5.920056e-5,"MEAN_MOTION_DOT":3.6e-7,"MEAN_MOTION_DDOT":0},{"OBJECT_NAME":"ONEWEB-0598","OBJECT_ID":"2023-004Q","EPOCH":"2025-08-24T14:16:22.405728","MEAN_MOTION":13.11416883,"ECCENTRICITY":0.00010948,"INCLINATION":87.8773,"RA_OF_ASC_NODE":80.185,"ARG_OF_PERICENTER":80.5005,"MEAN_ANOMALY":279.6246,"EPHEMERIS_TYPE":0,"CLASSIFICATION_TYPE":"U","NORAD_CAT_ID":55154,"ELEMENT_SET_NO":999,"REV_AT_EPOCH":12702,"BSTAR":-0.0014104368,"MEAN_MOTION_DOT":-4.87e-6,"MEAN_MOTION_DDOT":0},{"OBJECT_NAME":"ONEWEB-0599","OBJECT_ID":"2023-004R","EPOCH":"2025-08-24T13:40:54.929280","MEAN_MOTION":13.17651212,"ECCENTRICITY":0.00016318,"INCLINATION":87.903,"RA_OF_ASC_NODE":64.8869,"ARG_OF_PERICENTER":84.038,"MEAN_ANOMALY":276.0937,"EPHEMERIS_TYPE":0,"CLASSIFICATION_TYPE":"U","NORAD_CAT_ID":55155,"ELEMENT_SET_NO":999,"REV_AT_EPOCH":12842,"BSTAR":-5.97862e-7,"MEAN_MOTION_DOT":1.3e-7,"MEAN_MOTION_DDOT":0},{"OBJECT_NAME":"ONEWEB-0614","OBJECT_ID":"2023-004S","EPOCH":"2025-08-24T14:09:03.258720","MEAN_MOTION":13.1141624,"ECCENTRICITY":0.00018973,"INCLINATION":87.8775,"RA_OF_ASC_NODE":80.1957,"ARG_OF_PERICENTER":94.3275,"MEAN_ANOMALY":265.807,"EPHEMERIS_TYPE":0,"CLASSIFICATION_TYPE":"U","NORAD_CAT_ID":55156,"ELEMENT_SET_NO":999,"REV_AT_EPOCH":12696,"BSTAR":-0.0012701571,"MEAN_MOTION_DOT":-4.37e-6,"MEAN_MOTION_DDOT":0},{"OBJECT_NAME":"ONEWEB-0616","OBJECT_ID":"2023-004T","EPOCH":"2025-08-24T12:52:20.983872","MEAN_MOTION":13.17649869,"ECCENTRICITY":0.00021162,"INCLINATION":87.9031,"RA_OF_ASC_NODE":64.8845,"ARG_OF_PERICENTER":59.5873,"MEAN_ANOMALY":300.5467,"EPHEMERIS_TYPE":0,"CLASSIFICATION_TYPE":"U","NORAD_CAT_ID":55157,"ELEMENT_SET_NO":999,"REV_AT_EPOCH":12863,"BSTAR":5.6595784e-5,"MEAN_MOTION_DOT":3.5e-7,"MEAN_MOTION_DDOT":0},{"OBJECT_NAME":"ONEWEB-0617","OBJECT_ID":"2023-004U","EPOCH":"2025-08-24T13:51:58.272192","MEAN_MOTION":13.11414585,"ECCENTRICITY":0.0001701,"INCLINATION":87.8772,"RA_OF_ASC_NODE":80.1765,"ARG_OF_PERICENTER":97.7685,"MEAN_ANOMALY":262.3636,"EPHEMERIS_TYPE":0,"CLASSIFICATION_TYPE":"U","NORAD_CAT_ID":55158,"ELEMENT_SET_NO":999,"REV_AT_EPOCH":12698,"BSTAR":-0.00026481833,"MEAN_MOTION_DOT":-8.1e-7,"MEAN_MOTION_DDOT":0},{"OBJECT_NAME":"ONEWEB-0618","OBJECT_ID":"2023-004V","EPOCH":"2025-08-24T13:24:18.286272","MEAN_MOTION":14.67987431,"ECCENTRICITY":0.00126161,"INCLINATION":86.9086,"RA_OF_ASC_NODE":297.0282,"ARG_OF_PERICENTER":315.5161,"MEAN_ANOMALY":44.504,"EPHEMERIS_TYPE":0,"CLASSIFICATION_TYPE":"U","NORAD_CAT_ID":55159,"ELEMENT_SET_NO":999,"REV_AT_EPOCH":13759,"BSTAR":0.00016083002,"MEAN_MOTION_DOT":9.45e-6,"MEAN_MOTION_DDOT":0},{"OBJECT_NAME":"ONEWEB-0619","OBJECT_ID":"2023-004W","EPOCH":"2025-08-24T13:38:30.917760","MEAN_MOTION":13.17651024,"ECCENTRICITY":0.00022871,"INCLINATION":87.9027,"RA_OF_ASC_NODE":64.8533,"ARG_OF_PERICENTER":88.0019,"MEAN_ANOMALY":272.1375,"EPHEMERIS_TYPE":0,"CLASSIFICATION_TYPE":"U","NORAD_CAT_ID":55160,"ELEMENT_SET_NO":999,"REV_AT_EPOCH":12853,"BSTAR":0.00012820395,"MEAN_MOTION_DOT":6.3e-7,"MEAN_MOTION_DDOT":0},{"OBJECT_NAME":"ONEWEB-0620","OBJECT_ID":"2023-004X","EPOCH":"2025-08-24T13:44:38.853888","MEAN_MOTION":13.11414675,"ECCENTRICITY":0.00015126,"INCLINATION":87.8773,"RA_OF_ASC_NODE":80.199,"ARG_OF_PERICENTER":89.6839,"MEAN_ANOMALY":270.4462,"EPHEMERIS_TYPE":0,"CLASSIFICATION_TYPE":"U","NORAD_CAT_ID":55161,"ELEMENT_SET_NO":999,"REV_AT_EPOCH":12695,"BSTAR":0.0003649153,"MEAN_MOTION_DOT":1.42e-6,"MEAN_MOTION_DDOT":0},{"OBJECT_NAME":"ONEWEB-0621","OBJECT_ID":"2023-004Y","EPOCH":"2025-08-24T14:23:42.434880","MEAN_MOTION":13.11417636,"ECCENTRICITY":0.00019436,"INCLINATION":87.8783,"RA_OF_ASC_NODE":80.1517,"ARG_OF_PERICENTER":88.4855,"MEAN_ANOMALY":271.6496,"EPHEMERIS_TYPE":0,"CLASSIFICATION_TYPE":"U","NORAD_CAT_ID":55162,"ELEMENT_SET_NO":999,"REV_AT_EPOCH":12693,"BSTAR":-0.0014037908,"MEAN_MOTION_DOT":-4.85e-6,"MEAN_MOTION_DDOT":0},{"OBJECT_NAME":"ONEWEB-0622","OBJECT_ID":"2023-004Z","EPOCH":"2025-08-24T14:31:01.686432","MEAN_MOTION":13.11418355,"ECCENTRICITY":0.00019338,"INCLINATION":87.8775,"RA_OF_ASC_NODE":80.172,"ARG_OF_PERICENTER":109.9813,"MEAN_ANOMALY":250.1523,"EPHEMERIS_TYPE":0,"CLASSIFICATION_TYPE":"U","NORAD_CAT_ID":55163,"ELEMENT_SET_NO":999,"REV_AT_EPOCH":12692,"BSTAR":-0.00083910265,"MEAN_MOTION_DOT":-2.85e-6,"MEAN_MOTION_DDOT":0},{"OBJECT_NAME":"ONEWEB-0623","OBJECT_ID":"2023-004AA","EPOCH":"2025-08-24T13:31:12.999360","MEAN_MOTION":13.17647577,"ECCENTRICITY":0.00022915,"INCLINATION":87.9025,"RA_OF_ASC_NODE":64.9108,"ARG_OF_PERICENTER":104.1956,"MEAN_ANOMALY":255.943,"EPHEMERIS_TYPE":0,"CLASSIFICATION_TYPE":"U","NORAD_CAT_ID":55164,"ELEMENT_SET_NO":999,"REV_AT_EPOCH":12852,"BSTAR":4.7075578e-5,"MEAN_MOTION_DOT":3.1e-7,"MEAN_MOTION_DDOT":0},{"OBJECT_NAME":"ONEWEB-0624","OBJECT_ID":"2023-004AB","EPOCH":"2025-08-24T12:17:22.785792","MEAN_MOTION":13.12943878,"ECCENTRICITY":0.00018374,"INCLINATION":87.8866,"RA_OF_ASC_NODE":49.6071,"ARG_OF_PERICENTER":91.786,"MEAN_ANOMALY":268.3479,"EPHEMERIS_TYPE":0,"CLASSIFICATION_TYPE":"U","NORAD_CAT_ID":55165,"ELEMENT_SET_NO":999,"REV_AT_EPOCH":12914,"BSTAR":-0.00086466569,"MEAN_MOTION_DOT":-3.01e-6,"MEAN_MOTION_DDOT":0},{"OBJECT_NAME":"ONEWEB-0625","OBJECT_ID":"2023-004AC","EPOCH":"2025-08-24T13:16:37.999776","MEAN_MOTION":13.17650309,"ECCENTRICITY":0.00017949,"INCLINATION":87.9023,"RA_OF_ASC_NODE":64.9097,"ARG_OF_PERICENTER":83.6799,"MEAN_ANOMALY":276.4537,"EPHEMERIS_TYPE":0,"CLASSIFICATION_TYPE":"U","NORAD_CAT_ID":55166,"ELEMENT_SET_NO":999,"REV_AT_EPOCH":12851,"BSTAR":4.0380385e-5,"MEAN_MOTION_DOT":2.9e-7,"MEAN_MOTION_DDOT":0},{"OBJECT_NAME":"ONEWEB-0626","OBJECT_ID":"2023-004AD","EPOCH":"2025-08-24T13:02:03.446016","MEAN_MOTION":13.17649891,"ECCENTRICITY":0.00012088,"INCLINATION":87.9023,"RA_OF_ASC_NODE":64.9102,"ARG_OF_PERICENTER":88.8762,"MEAN_ANOMALY":271.2508,"EPHEMERIS_TYPE":0,"CLASSIFICATION_TYPE":"U","NORAD_CAT_ID":55167,"ELEMENT_SET_NO":999,"REV_AT_EPOCH":12851,"BSTAR":-5.8097719e-5,"MEAN_MOTION_DOT":-1.0e-7,"MEAN_MOTION_DDOT":0},{"OBJECT_NAME":"ONEWEB-0627","OBJECT_ID":"2023-004AE","EPOCH":"2025-08-24T12:45:03.798144","MEAN_MOTION":13.17642674,"ECCENTRICITY":0.00021504,"INCLINATION":87.9017,"RA_OF_ASC_NODE":64.9141,"ARG_OF_PERICENTER":104.059,"MEAN_ANOMALY":256.0781,"EPHEMERIS_TYPE":0,"CLASSIFICATION_TYPE":"U","NORAD_CAT_ID":55168,"ELEMENT_SET_NO":999,"REV_AT_EPOCH":12851,"BSTAR":-0.0026539737,"MEAN_MOTION_DOT":-1.017e-5,"MEAN_MOTION_DDOT":0},{"OBJECT_NAME":"ONEWEB-0628","OBJECT_ID":"2023-004AF","EPOCH":"2025-08-24T12:52:35.296032","MEAN_MOTION":13.12443621,"ECCENTRICITY":0.00023471,"INCLINATION":87.8872,"RA_OF_ASC_NODE":49.599,"ARG_OF_PERICENTER":103.06,"MEAN_ANOMALY":257.0791,"EPHEMERIS_TYPE":0,"CLASSIFICATION_TYPE":"U","NORAD_CAT_ID":55169,"ELEMENT_SET_NO":999,"REV_AT_EPOCH":12912,"BSTAR":0.00021661777,"MEAN_MOTION_DOT":9.1e-7,"MEAN_MOTION_DDOT":0}]
