ONEWEB-0588             
1 55153U 23004P   25236.50648144  .00000036  00000+0  59201-4 0  9997
2 55153  87.9143  34.4127 0001712 109.9683 250.1634 13.18688114130591
ONEWEB-0598             
1 55154U 23004Q   25236.59470377 -.00000487  00000+0 -14104-2 0  9991
2 55154  87.8773  80.1850 0001094  80.5005 279.6246 13.11416883127020
ONEWEB-0599             
1 55155U 23004R   25236.57008020  .00000013  00000+0 -59786-6 0  9995
2 55155  87.9030  64.8869 0001631  84.0380 276.0937 13.17651212128425
ONEWEB-0614             
1 55156U 23004S   25236.58962105 -.00000437  00000+0 -12702-2 0  9994
2 55156  87.8775  80.1957 0001897  94.3275 265.8070 13.11416240126966
ONEWEB-0616             
1 55157U 23004T   25236.53635398  .00000035  00000+0  56596-4 0  9994
2 55157  87.9031  64.8845 0002116  59.5873 300.5467 13.17649869128634
ONEWEB-0617             
1 55158U 23004U   25236.57775778 -.00000081  00000+0 -26482-3 0  9999
2 55158  87.8772  80.1765 0001701  97.7685 262.3636 13.11414585126980
ONEWEB-0618             
1 55159U 23004V   25236.55854498  .00000945  00000+0  16083-3 0  9998
2 55159  86.9086 297.0282 0012616 315.5161  44.5040 14.67987431137594
ONEWEB-0619             
1 55160U 23004W   25236.56841340  .00000063  00000+0  12820-3 0  9999
2 55160  87.9027  64.8533 0002287  88.0019 272.1375 13.17651024128532
ONEWEB-0620             
1 55161U 23004X   25236.57267192  .00000142  00000+0  36492-3 0  9997
2 55161  87.8773  80.1990 0001512  89.6839 270.4462 13.11414675126950
ONEWEB-0621             
1 55162U 23004Y   25236.59979670 -.00000485  00000+0 -14038-2 0  9994
2 55162  87.8783  80.1517 0001943  88.4855 271.6496 13.11417636126938
ONEWEB-0622             
1 55163U 23004Z   25236.60488063 -.00000285  00000+0 -83910-3 0  9992
2 55163  87.8775  80.1720 0001933 109.9813 250.1523 13.11418355126929
ONEWEB-0623             
1 55164U 23004AA  25236.56334490  .00000031  00000+0  47076-4 0  9993
2 55164  87.9025  64.9108 0002291 104.1956 255.9430 13.17647577128526
ONEWEB-0624             
1 55165U 23004AB  25236.51206928 -.00000301  00000+0 -86467-3 0  9991
2 55165  87.8866  49.6071 0001837  91.7860 268.3479 13.12943878129146
ONEWEB-0625             
1 55166U 23004AC  25236.55321759  .00000029  00000+0  40380-4 0  9996
2 55166  87.9023  64.9097 0001794  83.6799 276.4537 13.17650309128518
ONEWEB-0626             
1 55167U 23004AD  25236.54309544 -.00000010  00000+0 -58098-4 0  9991
2 55167  87.9023  64.9102 0001208  88.8762 271.2508 13.17649891128518
ONEWEB-0627             
1 55168U 23004AE  25236.53129396 -.00001017  00000+0 -26540-2 0  9999
2 55168  87.9017  64.9141 0002150 104.0590 256.0781 13.17642674128518
ONEWEB-0628             
1 55169U 23004AF  25236.53651963  .00000091  00000+0  21662-3 0  9990
2 55169  87.8872  49.5990 0002347 103.0600 257.0791 13.12443621129123
